JINJUSAT-1B             
1 63210U 25052A   26068.66363707  .00019955  00000+0  68430-3 0  9998
2 63210  97.4113 325.4613 0005550  82.1930 277.9941 15.30194857 54866
STARLINK-35069          
1 66268U 25247D   26068.84228169  .00042107  00000+0  14253-2 0  9990
2 66268  53.1572 190.9818 0001163  60.6357 299.4760 15.30209766 21051
